OCEANSAT-2              
1 35931U 09051A   26178.49351741 -.00000232  00000+0 -13299-3 0  9999
2 35931  98.2319 164.3165 0016058 205.1829 154.8556 13.99661142880774
WORLDVIEW-2 (WV-2)      
1 35946U 09055A   26178.46252661  .00000137  00000+0  59804-4 0  9992
2 35946  98.4765 251.7709 0004363 175.8960 184.2264 14.37902180877128
SMOS                    
1 36036U 09059A   26178.47486149  .00000244  00000+0  91711-4 0  9990
2 36036  98.4425   5.6591 0001315  88.3435 271.7904 14.39777832874931
YAOGAN-7                
1 36110U 09069A   26178.44676507  .00000493  00000+0  75335-4 0  9990
2 36110  98.0061  64.2500 0024844   9.6167 350.5514 14.78019638891148
TANDEM-X                
1 36605U 10030A   26177.61088746  .00000281  00000+0  16557-4 0  9995
2 36605  97.4451 185.1838 0001781  93.2192 266.9247 15.19151603888078
CARTOSAT-2B             
1 36795U 10035A   26178.55779873  .00000734  00000+0  10721-3 0  9991
2 36795  97.9955 229.0417 0012047 150.7395 209.4493 14.78673721861388
YAOGAN-10               
1 36834U 10038A   26178.54040204  .00002140  00000+0  25488-3 0  9995
2 36834  97.8977 201.8623 0001762  83.8286  68.9449 14.85381968858741
COSMO-SKYMED 4          
1 37216U 10060A   26178.50282067 -.00000014  00000+0  48274-5 0  9995
2 37216  97.8888   1.9532 0001466  85.4699 274.6682 14.82152084846094
RESOURCESAT-2           
1 37387U 11015A   26178.50567480  .00000088  00000+0  60353-4 0  9991
2 37387  98.7641 245.8761 0010562 222.9396 137.0957 14.21602173787646
HAIYANG-2A              
1 37781U 11043A   26178.52237668  .00000135  00000+0  18994-3 0  9990
2 37781  99.3393 180.9674 0004954  70.0949 290.0734 13.74025291748075
RASAT                   
1 37791U 11044D   26178.54656821  .00000455  00000+0  87386-4 0  9997
2 37791  98.0579 269.7854 0020992 155.9713 317.6925 14.68175687794704
SRMSAT                  
1 37841U 11058D   26178.20632691  .00000372  00000+0  58207-4 0  9998
2 37841  19.9735 358.8265 0011727 314.5587 200.6524 14.11577536759232
PLEIADES 1A             
1 38012U 11076F   26178.49679083  .00000552  00000+0  12872-3 0  9993
2 38012  98.1979 253.4614 0001776  89.6663  36.2711 14.58537841773499
ZIYUAN 1-02C (ZY 1-02C) 
1 38038U 11079A   26178.52181675  .00000753  00000+0  26214-3 0  9991
2 38038  98.4074 245.6145 0005120 279.8631 197.0865 14.38223851760698
ARIRANG-3 (KOMPSAT-3)   
1 38338U 12025B   26178.50256197  .00000440  00000+0  96646-4 0  9996
2 38338  98.1174 135.7846 0006816  83.7390 276.4587 14.62214842752852
EXACTVIEW-1 (ADS-1B)    
1 38709U 12039C   26178.28164451  .00000099  00000+0  62186-4 0  9991
2 38709  98.9787 295.9003 0011632 138.7054 221.5006 14.24987388724144
SPOT 6                  
1 38755U 12047A   26178.48809391  .00000441  00000+0  10485-3 0  9997
2 38755  98.2122 245.6768 0001350  75.5965 284.5384 14.58528883734558
PLEIADES 1B             
1 39019U 12068A   26178.50693576  .00000445  00000+0  10547-3 0  9996
2 39019  98.1949 253.4167 0001736  85.4529 274.6868 14.58566975722358
GOKTURK 2               
1 39030U 12073A   26178.52396641  .00000862  00000+0  13347-3 0  9994
2 39030  97.6819  15.4372 0001189  58.9353 301.1973 14.75554021726037
LANDSAT 8               
1 39084U 13008A   26178.46260218  .00000295  00000+0  75677-4 0  9990
2 39084  98.2299 248.4757 0001357  93.7956 266.3398 14.57100891699396
SARAL                   
1 39086U 13009A   26178.51550765  .00000079  00000+0  44809-4 0  9991
2 39086  98.5557   4.9519 0000744 226.6194 133.4929 14.32858322697089
GAOFEN-1                
1 39150U 13018A   26178.49912486  .00001075  00000+0  16116-3 0  9998
2 39150  97.9096 250.3578 0015900 230.1893 129.7918 14.76548750709764
VNREDSAT 1              
1 39160U 13021B   26178.47165762  .00000723  00000+0  14381-3 0  9999
2 39160  97.9082 231.4934 0001731  83.9494 276.1907 14.64867649701792
ARIRANG-5 (KOMPSAT-5)   
1 39227U 13042A   26178.54149749  .00001765  00000+0  13038-3 0  9996
2 39227  97.6189   5.0956 0005103  98.5656 261.6149 15.04515731705416
SKYSAT-A                
1 39418U 13066C   26178.37611385  .00002806  00000+0  16180-3 0  9993
2 39418  97.3810 227.4485 0019627 279.5451  80.3562 15.13027015690021
DUBAISAT-2              
1 39419U 13066D   26178.53948434  .00003675  00000+0  22813-3 0  9995
2 39419  97.4557 168.4127 0011330   7.9220 352.2187 15.10254640687953
GPM-CORE                
1 39574U 14009C   26178.50366152  .00010291  00000+0  22327-3 0  9995
2 39574  64.9722 273.5706 0011437 255.6981 104.2890 15.44783938699406
KAZEOSAT 1              
1 39731U 14024A   26178.49875850  .00000394  00000+0  13300-3 0  9999
2 39731  98.3208 250.6899 0001245  75.1936 284.9392 14.42084594640049
ALOS-2                  
1 39766U 14029A   26178.55463154  .00001770  00000+0  24387-3 0  9995
2 39766  97.9225 275.5701 0001620  93.6492 266.4905 14.79467553653115
KAZEOSAT 2              
1 40010U 14033A   26178.53612847  .00000644  00000+0  80485-4 0  9998
2 40010  97.5407  17.6015 0007091 290.5831  69.4624 14.85482330650497
