OBJECT_NAME,OBJECT_ID,EPOCH,MEAN_MOTION,ECCENTRICITY,INCLINATION,RA_OF_ASC_NODE,ARG_OF_PERICENTER,MEAN_ANOMALY,EPHEMERIS_TYPE,CLASSIFICATION_TYPE,NORAD_CAT_ID,ELEMENT_SET_NO,REV_AT_EPOCH,BSTAR,MEAN_MOTION_DOT,MEAN_MOTION_DDOT
OCEANSAT-2,2009-051A,2026-06-27T11:50:39.904224,13.99661142,.0016058,98.2319,164.3165,205.1829,154.8556,0,U,35931,999,88077,-.13299E-3,-.232E-5,0
WORLDVIEW-2 (WV-2),2009-055A,2026-06-27T11:06:02.299104,14.37902180,.0004363,98.4765,251.7709,175.8960,184.2264,0,U,35946,999,87712,.59804E-4,.137E-5,0
SMOS,2009-059A,2026-06-27T11:23:48.032736,14.39777832,.0001315,98.4425,5.6591,88.3435,271.7904,0,U,36036,999,87493,.91711E-4,.244E-5,0
YAOGAN-7,2009-069A,2026-06-27T10:43:20.502048,14.78019638,.0024844,98.0061,64.2500,9.6167,350.5514,0,U,36110,999,89114,.75335E-4,.493E-5,0
TANDEM-X,2010-030A,2026-06-26T14:39:40.676544,15.19151603,.00017816,97.4451,185.1838,93.2192,266.9247,0,U,36605,999,88807,.16556648E-4,.281E-5,0
CARTOSAT-2B,2010-035A,2026-06-27T13:23:13.810272,14.78673721,.0012047,97.9955,229.0417,150.7395,209.4493,0,U,36795,999,86138,.10721E-3,.734E-5,0
YAOGAN-10,2010-038A,2026-06-27T12:58:10.736256,14.85381968,.0001762,97.8977,201.8623,83.8286,68.9449,0,U,36834,999,85874,.25488E-3,.214E-4,0
COSMO-SKYMED 4,2010-060A,2026-06-27T12:04:03.705888,14.82152084,.0001466,97.8888,1.9532,85.4699,274.6682,0,U,37216,999,84609,.48274E-5,-.14E-6,0
RESOURCESAT-2,2011-015A,2026-06-27T12:08:10.302720,14.21602173,.0010562,98.7641,245.8761,222.9396,137.0957,0,U,37387,999,78764,.60353E-4,.88E-6,0
HAIYANG-2A,2011-043A,2026-06-27T12:32:13.345152,13.74025291,.0004954,99.3393,180.9674,70.0949,290.0734,0,U,37781,999,74807,.18994E-3,.135E-5,0
RASAT,2011-044D,2026-06-27T13:07:03.493344,14.68175687,.0020992,98.0579,269.7854,155.9713,317.6925,0,U,37791,999,79470,.87386E-4,.455E-5,0
SRMSAT,2011-058D,2026-06-27T04:57:06.645024,14.11577536,.0011727,19.9735,358.8265,314.5587,200.6524,0,U,37841,999,75923,.58206686E-4,.372E-5,0
PLEIADES 1A,2011-076F,2026-06-27T11:55:22.727712,14.58537841,.0001776,98.1979,253.4614,89.6663,36.2711,0,U,38012,999,77349,.12872E-3,.552E-5,0
ZIYUAN 1-02C (ZY 1-02C),2011-079A,2026-06-27T12:31:24.967200,14.38223851,.000512,98.4074,245.6145,279.8631,197.0865,0,U,38038,999,76069,.26214E-3,.753E-5,0
ARIRANG-3 (KOMPSAT-3),2012-025B,2026-06-27T12:03:41.354208,14.62214842,.0006816,98.1174,135.7846,83.7390,276.4587,0,U,38338,999,75285,.96646E-4,.44E-5,0
EXACTVIEW-1 (ADS-1B),2012-039C,2026-06-27T06:45:34.085664,14.24987388,.0011632,98.9787,295.9003,138.7054,221.5006,0,U,38709,999,72414,.62186E-4,.99E-6,0
SPOT 6,2012-047A,2026-06-27T11:42:51.313824,14.58528883,.000135,98.2122,245.6768,75.5965,284.5384,0,U,38755,999,73455,.10485E-3,.441E-5,0
PLEIADES 1B,2012-068A,2026-06-27T12:09:59.249664,14.58566975,.0001736,98.1949,253.4167,85.4529,274.6868,0,U,39019,999,72235,.10547E-3,.445E-5,0
GOKTURK 2,2012-073A,2026-06-27T12:34:30.697824,14.75554021,.0001189,97.6819,15.4372,58.9353,301.1973,0,U,39030,999,72603,.13347E-3,.862E-5,0
LANDSAT 8,2013-008A,2026-06-27T11:06:08.828352,14.57100891,.0001357,98.2299,248.4757,93.7956,266.3398,0,U,39084,999,69939,.75677E-4,.295E-5,0
SARAL,2013-009A,2026-06-27T12:22:19.860960,14.32858322,.0000744,98.5557,4.9519,226.6194,133.4929,0,U,39086,999,69708,.44809E-4,.79E-6,0
GAOFEN-1,2013-018A,2026-06-27T11:58:44.387904,14.76548750,.00159,97.9096,250.3578,230.1893,129.7918,0,U,39150,999,70976,.16116E-3,.1075E-4,0
VNREDSAT 1,2013-021B,2026-06-27T11:19:11.218368,14.64867649,.0001731,97.9082,231.4934,83.9494,276.1907,0,U,39160,999,70179,.14381E-3,.723E-5,0
ARIRANG-5 (KOMPSAT-5),2013-042A,2026-06-27T12:59:45.383136,15.04515731,.0005103,97.6189,5.0956,98.5656,261.6149,0,U,39227,999,70541,.13038E-3,.1765E-4,0
SKYSAT-A,2013-066C,2026-06-27T09:01:36.236640,15.13027015,.0019627,97.3810,227.4485,279.5451,80.3562,0,U,39418,999,69002,.1618E-3,.2806E-4,0
DUBAISAT-2,2013-066D,2026-06-27T12:56:51.446976,15.10254640,.001133,97.4557,168.4127,7.9220,352.2187,0,U,39419,999,68795,.22813E-3,.3675E-4,0
GPM-CORE,2014-009C,2026-06-27T12:05:16.355328,15.44783938,.0011437,64.9722,273.5706,255.6981,104.2890,0,U,39574,999,69940,.22327E-3,.10291E-3,0
KAZEOSAT 1,2014-024A,2026-06-27T11:58:12.734400,14.42084594,.0001245,98.3208,250.6899,75.1936,284.9392,0,U,39731,999,64004,.133E-3,.394E-5,0
ALOS-2,2014-029A,2026-06-27T13:18:40.165056,14.79467553,.000162,97.9225,275.5701,93.6492,266.4905,0,U,39766,999,65311,.24387E-3,.177E-4,0
KAZEOSAT 2,2014-033A,2026-06-27T12:52:01.499808,14.85482330,.0007091,97.5407,17.6015,290.5831,69.4624,0,U,40010,999,65049,.80485E-4,.644E-5,0
